DELTA 2 R/B(1)          
1 20453U 90008B   25347.13853379  .00055305  00000+0  88235-3 0  9997
2 20453  35.6077  17.9583 0111385 182.2896 177.7336 15.45255970912696
COSMOS 2058             
1 20465U 90010A   25347.68539097  .00006345  00000+0  38353-3 0  9997
2 20465  82.4665 132.0997 0008363 268.9977  91.0294 15.10481734929255
SL-14 R/B               
1 20466U 90010B   25347.48740904  .00000744  00000+0  87505-4 0  9998
2 20466  82.5020 348.3448 0018766 220.5317 139.4501 14.83472590915707
SL-14 R/B               
1 20511U 90018B   25347.35483772  .00000845  00000+0  10327-3 0  9999
2 20511  82.5210 303.7894 0016952  21.4025 338.7894 14.82047903909794
HST                     
1 20580U 90037B   25347.18396407  .00010978  00000+0  38148-3 0  9994
2 20580  28.4685 269.4662 0001790 244.6720 115.3690 15.28062026760063
SL-16 R/B               
1 20625U 90046B   25347.66490942 -.00000107  00000+0 -30884-4 0  9991
2 20625  70.9992 118.5786 0011842  71.4908 288.7500 14.15001184836220
COSMOS 2084             
1 20663U 90055A   25347.49822977  .00004774  00000+0  34499-3 0  9998
2 20663  62.7906 269.4084 0031561 174.7191 185.4248 15.05027751923344
SL-6 R/B(2)             
1 20666U 90055D   25347.69872429  .00002819  00000+0  22225-3 0  9992
2 20666  62.7827 186.1573 0012811 309.5883  50.4084 15.03081317925268
SL-8 R/B                
1 20775U 90078B   25347.47181720  .00029828  00000+0  92318-3 0  9990
2 20775  82.9049 328.6555 0371855 303.4492  53.1678 14.85983056796486
SL-8 R/B                
1 21088U 91006B   25347.69565543  .00000073  00000+0  58097-4 0  9991
2 21088  82.9427 234.0019 0021211 277.0283 146.8959 13.77490091752230
OKEAN-3                 
1 21397U 91039A   25347.68006618  .00004757  00000+0  34073-3 0  9992
2 21397  82.5173  60.1370 0013014 263.1087  96.8659 15.04127024852108
COSMOS 2151             
1 21422U 91042A   25347.62405077  .00002377  00000+0  19039-3 0  9992
2 21422  82.4958 166.6510 0012487 357.0877   3.0272 14.99690240850295
