CCSDS_OMM_VERS = 2.0
CREATION_DATE  = 
ORIGINATOR     = 

OBJECT_NAME    = DELTA 2 R/B(1)
OBJECT_ID      = 1990-008B
CENTER_NAME    = EARTH
REF_FRAME      = TEME
TIME_SYSTEM    = UTC
MEAN_ELEMENT_THEORY = SGP/SGP4

EPOCH          = 2025-12-13T03:19:29.319456
MEAN_MOTION    = 15.45255970
ECCENTRICITY   = .0111385
INCLINATION    = 35.6077
RA_OF_ASC_NODE = 17.9583
ARG_OF_PERICENTER = 182.2896
MEAN_ANOMALY   = 177.7336

EPHEMERIS_TYPE = 0
CLASSIFICATION_TYPE = U
NORAD_CAT_ID   = 20453
ELEMENT_SET_NO = 999
REV_AT_EPOCH   = 91269
BSTAR          = .88234721E-3
MEAN_MOTION_DOT = .55305E-3
MEAN_MOTION_DDOT = 0

CCSDS_OMM_VERS = 2.0
CREATION_DATE  = 
ORIGINATOR     = 

OBJECT_NAME    = COSMOS 2058
OBJECT_ID      = 1990-010A
CENTER_NAME    = EARTH
REF_FRAME      = TEME
TIME_SYSTEM    = UTC
MEAN_ELEMENT_THEORY = SGP/SGP4

EPOCH          = 2025-12-13T16:26:57.779808
MEAN_MOTION    = 15.10481734
ECCENTRICITY   = .00083633
INCLINATION    = 82.4665
RA_OF_ASC_NODE = 132.0997
ARG_OF_PERICENTER = 268.9977
MEAN_ANOMALY   = 91.0294

EPHEMERIS_TYPE = 0
CLASSIFICATION_TYPE = U
NORAD_CAT_ID   = 20465
ELEMENT_SET_NO = 999
REV_AT_EPOCH   = 92925
BSTAR          = .38352867E-3
MEAN_MOTION_DOT = .6345E-4
MEAN_MOTION_DDOT = 0

CCSDS_OMM_VERS = 2.0
CREATION_DATE  = 
ORIGINATOR     = 

OBJECT_NAME    = SL-14 R/B
OBJECT_ID      = 1990-010B
CENTER_NAME    = EARTH
REF_FRAME      = TEME
TIME_SYSTEM    = UTC
MEAN_ELEMENT_THEORY = SGP/SGP4

EPOCH          = 2025-12-13T11:41:52.141056
MEAN_MOTION    = 14.83472590
ECCENTRICITY   = .00187663
INCLINATION    = 82.5020
RA_OF_ASC_NODE = 348.3448
ARG_OF_PERICENTER = 220.5317
MEAN_ANOMALY   = 139.4501

EPHEMERIS_TYPE = 0
CLASSIFICATION_TYPE = U
NORAD_CAT_ID   = 20466
ELEMENT_SET_NO = 999
REV_AT_EPOCH   = 91570
BSTAR          = .87505153E-4
MEAN_MOTION_DOT = .744E-5
MEAN_MOTION_DDOT = 0

CCSDS_OMM_VERS = 2.0
CREATION_DATE  = 
ORIGINATOR     = 

OBJECT_NAME    = SL-14 R/B
OBJECT_ID      = 1990-018B
CENTER_NAME    = EARTH
REF_FRAME      = TEME
TIME_SYSTEM    = UTC
MEAN_ELEMENT_THEORY = SGP/SGP4

EPOCH          = 2025-12-13T08:30:57.979008
MEAN_MOTION    = 14.82047903
ECCENTRICITY   = .00169529
INCLINATION    = 82.5210
RA_OF_ASC_NODE = 303.7894
ARG_OF_PERICENTER = 21.4025
MEAN_ANOMALY   = 338.7894

EPHEMERIS_TYPE = 0
CLASSIFICATION_TYPE = U
NORAD_CAT_ID   = 20511
ELEMENT_SET_NO = 999
REV_AT_EPOCH   = 90979
BSTAR          = .10327152E-3
MEAN_MOTION_DOT = .845E-5
MEAN_MOTION_DDOT = 0

CCSDS_OMM_VERS = 2.0
CREATION_DATE  = 
ORIGINATOR     = 

OBJECT_NAME    = HST
OBJECT_ID      = 1990-037B
CENTER_NAME    = EARTH
REF_FRAME      = TEME
TIME_SYSTEM    = UTC
MEAN_ELEMENT_THEORY = SGP/SGP4

EPOCH          = 2025-12-13T04:24:54.495648
MEAN_MOTION    = 15.28062026
ECCENTRICITY   = .00017908
INCLINATION    = 28.4685
RA_OF_ASC_NODE = 269.4662
ARG_OF_PERICENTER = 244.6720
MEAN_ANOMALY   = 115.3690

EPHEMERIS_TYPE = 0
CLASSIFICATION_TYPE = U
NORAD_CAT_ID   = 20580
ELEMENT_SET_NO = 999
REV_AT_EPOCH   = 76006
BSTAR          = .38147643E-3
MEAN_MOTION_DOT = .10978E-3
MEAN_MOTION_DDOT = 0

CCSDS_OMM_VERS = 2.0
CREATION_DATE  = 
ORIGINATOR     = 

OBJECT_NAME    = SL-16 R/B
OBJECT_ID      = 1990-046B
CENTER_NAME    = EARTH
REF_FRAME      = TEME
TIME_SYSTEM    = UTC
MEAN_ELEMENT_THEORY = SGP/SGP4

EPOCH          = 2025-12-13T15:57:28.173888
MEAN_MOTION    = 14.15001184
ECCENTRICITY   = .00118427
INCLINATION    = 70.9992
RA_OF_ASC_NODE = 118.5786
ARG_OF_PERICENTER = 71.4908
MEAN_ANOMALY   = 288.7500

EPHEMERIS_TYPE = 0
CLASSIFICATION_TYPE = U
NORAD_CAT_ID   = 20625
ELEMENT_SET_NO = 999
REV_AT_EPOCH   = 83622
BSTAR          = -.30883703E-4
MEAN_MOTION_DOT = -.107E-5
MEAN_MOTION_DDOT = 0

CCSDS_OMM_VERS = 2.0
CREATION_DATE  = 
ORIGINATOR     = 

OBJECT_NAME    = COSMOS 2084
OBJECT_ID      = 1990-055A
CENTER_NAME    = EARTH
REF_FRAME      = TEME
TIME_SYSTEM    = UTC
MEAN_ELEMENT_THEORY = SGP/SGP4

EPOCH          = 2025-12-13T11:57:27.052128
MEAN_MOTION    = 15.05027751
ECCENTRICITY   = .0031561
INCLINATION    = 62.7906
RA_OF_ASC_NODE = 269.4084
ARG_OF_PERICENTER = 174.7191
MEAN_ANOMALY   = 185.4248

EPHEMERIS_TYPE = 0
CLASSIFICATION_TYPE = U
NORAD_CAT_ID   = 20663
ELEMENT_SET_NO = 999
REV_AT_EPOCH   = 92334
BSTAR          = .34498864E-3
MEAN_MOTION_DOT = .4774E-4
MEAN_MOTION_DDOT = 0

CCSDS_OMM_VERS = 2.0
CREATION_DATE  = 
ORIGINATOR     = 

OBJECT_NAME    = SL-6 R/B(2)
OBJECT_ID      = 1990-055D
CENTER_NAME    = EARTH
REF_FRAME      = TEME
TIME_SYSTEM    = UTC
MEAN_ELEMENT_THEORY = SGP/SGP4

EPOCH          = 2025-12-13T16:46:09.778656
MEAN_MOTION    = 15.03081317
ECCENTRICITY   = .00128113
INCLINATION    = 62.7827
RA_OF_ASC_NODE = 186.1573
ARG_OF_PERICENTER = 309.5883
MEAN_ANOMALY   = 50.4084

EPHEMERIS_TYPE = 0
CLASSIFICATION_TYPE = U
NORAD_CAT_ID   = 20666
ELEMENT_SET_NO = 999
REV_AT_EPOCH   = 92526
BSTAR          = .22224924E-3
MEAN_MOTION_DOT = .2819E-4
MEAN_MOTION_DDOT = 0

CCSDS_OMM_VERS = 2.0
CREATION_DATE  = 
ORIGINATOR     = 

OBJECT_NAME    = SL-8 R/B
OBJECT_ID      = 1990-078B
CENTER_NAME    = EARTH
REF_FRAME      = TEME
TIME_SYSTEM    = UTC
MEAN_ELEMENT_THEORY = SGP/SGP4

EPOCH          = 2025-12-13T11:19:25.006080
MEAN_MOTION    = 14.85983056
ECCENTRICITY   = .03718559
INCLINATION    = 82.9049
RA_OF_ASC_NODE = 328.6555
ARG_OF_PERICENTER = 303.4492
MEAN_ANOMALY   = 53.1678

EPHEMERIS_TYPE = 0
CLASSIFICATION_TYPE = U
NORAD_CAT_ID   = 20775
ELEMENT_SET_NO = 999
REV_AT_EPOCH   = 79648
BSTAR          = .92317575E-3
MEAN_MOTION_DOT = .29828E-3
MEAN_MOTION_DDOT = 0

CCSDS_OMM_VERS = 2.0
CREATION_DATE  = 
ORIGINATOR     = 

OBJECT_NAME    = SL-8 R/B
OBJECT_ID      = 1991-006B
CENTER_NAME    = EARTH
REF_FRAME      = TEME
TIME_SYSTEM    = UTC
MEAN_ELEMENT_THEORY = SGP/SGP4

EPOCH          = 2025-12-13T16:41:44.629152
MEAN_MOTION    = 13.77490091
ECCENTRICITY   = .00212111
INCLINATION    = 82.9427
RA_OF_ASC_NODE = 234.0019
ARG_OF_PERICENTER = 277.0283
MEAN_ANOMALY   = 146.8959

EPHEMERIS_TYPE = 0
CLASSIFICATION_TYPE = U
NORAD_CAT_ID   = 21088
ELEMENT_SET_NO = 999
REV_AT_EPOCH   = 75223
BSTAR          = .58096531E-4
MEAN_MOTION_DOT = .73E-6
MEAN_MOTION_DDOT = 0

CCSDS_OMM_VERS = 2.0
CREATION_DATE  = 
ORIGINATOR     = 

OBJECT_NAME    = OKEAN-3
OBJECT_ID      = 1991-039A
CENTER_NAME    = EARTH
REF_FRAME      = TEME
TIME_SYSTEM    = UTC
MEAN_ELEMENT_THEORY = SGP/SGP4

EPOCH          = 2025-12-13T16:19:17.717952
MEAN_MOTION    = 15.04127024
ECCENTRICITY   = .00130146
INCLINATION    = 82.5173
RA_OF_ASC_NODE = 60.1370
ARG_OF_PERICENTER = 263.1087
MEAN_ANOMALY   = 96.8659

EPHEMERIS_TYPE = 0
CLASSIFICATION_TYPE = U
NORAD_CAT_ID   = 21397
ELEMENT_SET_NO = 999
REV_AT_EPOCH   = 85210
BSTAR          = .34072505E-3
MEAN_MOTION_DOT = .4757E-4
MEAN_MOTION_DDOT = 0

CCSDS_OMM_VERS = 2.0
CREATION_DATE  = 
ORIGINATOR     = 

OBJECT_NAME    = COSMOS 2151
OBJECT_ID      = 1991-042A
CENTER_NAME    = EARTH
REF_FRAME      = TEME
TIME_SYSTEM    = UTC
MEAN_ELEMENT_THEORY = SGP/SGP4

EPOCH          = 2025-12-13T14:58:37.986528
MEAN_MOTION    = 14.99690240
ECCENTRICITY   = .0012487
INCLINATION    = 82.4958
RA_OF_ASC_NODE = 166.6510
ARG_OF_PERICENTER = 357.0877
MEAN_ANOMALY   = 3.0272

EPHEMERIS_TYPE = 0
CLASSIFICATION_TYPE = U
NORAD_CAT_ID   = 21422
ELEMENT_SET_NO = 999
REV_AT_EPOCH   = 85029
BSTAR          = .1903942E-3
MEAN_MOTION_DOT = .2377E-4
MEAN_MOTION_DDOT = 0

